{"type": "FeatureCollection", "features": [ {"type": "Feature", "properties": {"norad_id": 66564, "name": "STARLINK-35358", "group": "last-30-days", "lat": -33.71600919681274, "lon": 24.710920851671446, "alt_km": 400.3512350778383, "timestamp": "2025-12-21T09:37:21.369951+00:00", "meta": {"OBJECT_NAME": "STARLINK-35358", "OBJECT_ID": "2025-268H", "EPOCH": "2025-12-21T04:00:01.998720", "MEAN_MOTION": 15.56403574, "ECCENTRICITY": 0.0001622, "INCLINATION": 43.0007, "RA_OF_ASC_NODE": 71.8278, "ARG_OF_PERICENTER": 252.5538, "MEAN_ANOMALY": 178.8745, "EPHEMERIS_TYPE": 0, "CLASSIFICATION_TYPE": "U", "NORAD_CAT_ID": 66564, "ELEMENT_SET_NO": 999, "REV_AT_EPOCH": 597, "BSTAR": -0.00036772, "MEAN_MOTION_DOT": -0.00026946, "MEAN_MOTION_DDOT": 0}, "tle": {"line1": "1 66564U 25268H   25355.16668980 -.00026946  00000+0 -36772-3 0  9990", "line2": "2 66564  43.0007  71.8278 0001622 252.5538 178.8745 15.56403574  5978"}}, "geometry": {"type": "Point", "coordinates": [24.710920851671446, -33.71600919681274]}}, {"type": "Feature", "properties": {"norad_id": 66565, "name": "STARLINK-35893", "group": "last-30-days", "lat": -32.79657346521175, "lon": 26.690180742213297, "alt_km": 400.3584819765283, "timestamp": "2025-12-21T09:37:21.369962+00:00", "meta": {"OBJECT_NAME": "STARLINK-35893", "OBJECT_ID": "2025-268J", "EPOCH": "2025-12-21T04:00:01.998720", "MEAN_MOTION": 15.56333351, "ECCENTRICITY": 0.0001644, "INCLINATION": 43.0004, "RA_OF_ASC_NODE": 71.8209, "ARG_OF_PERICENTER": 251.4728, "MEAN_ANOMALY": 181.8891, "EPHEMERIS_TYPE": 0, "CLASSIFICATION_TYPE": "U", "NORAD_CAT_ID": 66565, "ELEMENT_SET_NO": 999, "REV_AT_EPOCH": 602, "BSTAR": 0.0014403, "MEAN_MOTION_DOT": 0.00105203, "MEAN_MOTION_DDOT": 0}, "tle": {"line1": "1 66565U 25268J   25355.16668980  .00105203  00000+0  14403-2 0  9999", "line2": "2 66565  43.0004  71.8209 0001644 251.4728 181.8891 15.56333351  6021"}}, "geometry": {"type": "Point", "coordinates": [26.690180742213297, -32.79657346521175]}}, {"type": "Feature", "properties": {"norad_id": 66566, "name": "STARLINK-35871", "group": "last-30-days", "lat": -31.82999273175109, "lon": 28.66560485899591, "alt_km": 400.3392705583483, "timestamp": "2025-12-21T09:37:21.369972+00:00", "meta": {"OBJECT_NAME": "STARLINK-35871", "OBJECT_ID": "2025-268K", "EPOCH": "2025-12-21T04:00:01.998720", "MEAN_MOTION": 15.56407352, "ECCENTRICITY": 0.0001567, "INCLINATION": 43.0005, "RA_OF_ASC_NODE": 71.8181, "ARG_OF_PERICENTER": 251.1764, "MEAN_ANOMALY": 184.0834, "EPHEMERIS_TYPE": 0, "CLASSIFICATION_TYPE": "U", "NORAD_CAT_ID": 66566, "ELEMENT_SET_NO": 999, "REV_AT_EPOCH": 602, "BSTAR": -0.00044084, "MEAN_MOTION_DOT": -0.00032214, "MEAN_MOTION_DDOT": 0}, "tle": {"line1": "1 66566U 25268K   25355.16668980 -.00032214  00000+0 -44084-3 0  9992", "line2": "2 66566  43.0005  71.8181 0001567 251.1764 184.0834 15.56407352  6028"}}, "geometry": {"type": "Point", "coordinates": [28.66560485899591, -31.82999273175109]}}, {"type": "Feature", "properties": {"norad_id": 66567, "name": "STARLINK-35825", "group": "last-30-days", "lat": -30.847651054901096, "lon": 30.567650693503456, "alt_km": 400.3118377558576, "timestamp": "2025-12-21T09:37:21.369983+00:00", "meta": {"OBJECT_NAME": "STARLINK-35825", "OBJECT_ID": "2025-268L", "EPOCH": "2025-12-21T04:00:01.998720", "MEAN_MOTION": 15.56335611, "ECCENTRICITY": 0.0001549, "INCLINATION": 43.0002, "RA_OF_ASC_NODE": 71.811, "ARG_OF_PERICENTER": 252.8569, "MEAN_ANOMALY": 184.3432, "EPHEMERIS_TYPE": 0, "CLASSIFICATION_TYPE": "U", "NORAD_CAT_ID": 66567, "ELEMENT_SET_NO": 999, "REV_AT_EPOCH": 602, "BSTAR": 0.0014118, "MEAN_MOTION_DOT": 0.00103097, "MEAN_MOTION_DDOT": 0}, "tle": {"line1": "1 66567U 25268L   25355.16668980  .00103097  00000+0  14118-2 0  9993", "line2": "2 66567  43.0002  71.8110 0001549 252.8569 184.3432 15.56335611  6024"}}, "geometry": {"type": "Point", "coordinates": [30.567650693503456, -30.847651054901096]}}, {"type": "Feature", "properties": {"norad_id": 66568, "name": "STARLINK-35803", "group": "last-30-days", "lat": -37.4828464829978, "lon": 15.085232106898246, "alt_km": 407.977310370964, "timestamp": "2025-12-21T09:37:21.369994+00:00", "meta": {"OBJECT_NAME": "STARLINK-35803", "OBJECT_ID": "2025-268M", "EPOCH": "2025-12-21T04:00:01.998720", "MEAN_MOTION": 15.53315635, "ECCENTRICITY": 0.0001729, "INCLINATION": 43.0005, "RA_OF_ASC_NODE": 71.8405, "ARG_OF_PERICENTER": 227.8345, "MEAN_ANOMALY": 197.2472, "EPHEMERIS_TYPE": 0, "CLASSIFICATION_TYPE": "U", "NORAD_CAT_ID": 66568, "ELEMENT_SET_NO": 999, "REV_AT_EPOCH": 602, "BSTAR": 0.019133, "MEAN_MOTION_DOT": 0.01380654, "MEAN_MOTION_DDOT": 0}, "tle": {"line1": "1 66568U 25268M   25355.16668980  .01380654  00000+0  19133-1 0  9992", "line2": "2 66568  43.0005  71.8405 0001729 227.8345 197.2472 15.53315635  6027"}}, "geometry": {"type": "Point", "coordinates": [15.085232106898246, -37.4828464829978]}}, {"type": "Feature", "properties": {"norad_id": 66569, "name": "STARLINK-35835", "group": "last-30-days", "lat": -36.71524951140255, "lon": 17.301887344836587, "alt_km": 409.1567541840459, "timestamp": "2025-12-21T09:37:21.370005+00:00", "meta": {"OBJECT_NAME": "STARLINK-35835", "OBJECT_ID": "2025-268N", "EPOCH": "2025-12-19T14:38:53.453760", "MEAN_MOTION": 15.51068809, "ECCENTRICITY": 0.000157, "INCLINATION": 43.0021, "RA_OF_ASC_NODE": 80.9616, "ARG_OF_PERICENTER": 180.5459, "MEAN_ANOMALY": 179.5399, "EPHEMERIS_TYPE": 0, "CLASSIFICATION_TYPE": "U", "NORAD_CAT_ID": 66569, "ELEMENT_SET_NO": 999, "REV_AT_EPOCH": 569, "BSTAR": 0.01158, "MEAN_MOTION_DOT": 0.0075028, "MEAN_MOTION_DDOT": 0}, "tle": {"line1": "1 66569U 25268N   25353.61034090  .00750280  00000+0  11580-1 0  9993", "line2": "2 66569  43.0021  80.9616 0001570 180.5459 179.5399 15.51068809  5695"}}, "geometry": {"type": "Point", "coordinates": [17.301887344836587, -36.71524951140255]}}, {"type": "Feature", "properties": {"norad_id": 66570, "name": "STARLINK-35834", "group": "last-30-days", "lat": -37.12883086196021, "lon": 16.132637210875256, "alt_km": 411.44417802151565, "timestamp": "2025-12-21T09:37:21.370016+00:00", "meta": {"OBJECT_NAME": "STARLINK-35834", "OBJECT_ID": "2025-268P", "EPOCH": "2025-12-19T14:38:22.069824", "MEAN_MOTION": 15.5108495, "ECCENTRICITY": 0.0001238, "INCLINATION": 43.0034, "RA_OF_ASC_NODE": 80.9577, "ARG_OF_PERICENTER": 245.0703, "MEAN_ANOMALY": 115.0029, "EPHEMERIS_TYPE": 0, "CLASSIFICATION_TYPE": "U", "NORAD_CAT_ID": 66570, "ELEMENT_SET_NO": 999, "REV_AT_EPOCH": 569, "BSTAR": 0.0072465, "MEAN_MOTION_DOT": 0.00458871, "MEAN_MOTION_DDOT": 0}, "tle": {"line1": "1 66570U 25268P   25353.60997766  .00458871  00000+0  72465-2 0  9993", "line2": "2 66570  43.0034  80.9577 0001238 245.0703 115.0029 15.51084950  5697"}}, "geometry": {"type": "Point", "coordinates": [16.132637210875256, -37.12883086196021]}}, {"type": "Feature", "properties": {"norad_id": 66571, "name": "STARLINK-35836", "group": "last-30-days", "lat": -26.68056504447774, "lon": 37.77651218654459, "alt_km": 399.8942478293666, "timestamp": "2025-12-21T09:37:21.370027+00:00", "meta": {"OBJECT_NAME": "STARLINK-35836", "OBJECT_ID": "2025-268Q", "EPOCH": "2025-12-21T04:00:01.998720", "MEAN_MOTION": 15.56452081, "ECCENTRICITY": 0.0001871, "INCLINATION": 43.0002, "RA_OF_ASC_NODE": 71.7933, "ARG_OF_PERICENTER": 261.8616, "MEAN_ANOMALY": 182.8736, "EPHEMERIS_TYPE": 0, "CLASSIFICATION_TYPE": "U", "NORAD_CAT_ID": 66571, "ELEMENT_SET_NO": 999, "REV_AT_EPOCH": 602, "BSTAR": -0.0020238, "MEAN_MOTION_DOT": -0.00144772, "MEAN_MOTION_DDOT": 0}, "tle": {"line1": "1 66571U 25268Q   25355.16668980 -.00144772  00000+0 -20238-2 0  9995", "line2": "2 66571  43.0002  71.7933 0001871 261.8616 182.8736 15.56452081  6023"}}, "geometry": {"type": "Point", "coordinates": [37.77651218654459, -26.68056504447774]}}, {"type": "Feature", "properties": {"norad_id": 66572, "name": "STARLINK-35870", "group": "last-30-days", "lat": -25.580421942131824, "lon": 39.496418806410546, "alt_km": 400.1503361848845, "timestamp": "2025-12-21T09:37:21.370037+00:00", "meta": {"OBJECT_NAME": "STARLINK-35870", "OBJECT_ID": "2025-268R", "EPOCH": "2025-12-21T04:00:01.998720", "MEAN_MOTION": 15.56395037, "ECCENTRICITY": 0.0001256, "INCLINATION": 43.0008, "RA_OF_ASC_NODE": 71.7894, "ARG_OF_PERICENTER": 249.43, "MEAN_ANOMALY": 197.2221, "EPHEMERIS_TYPE": 0, "CLASSIFICATION_TYPE": "U", "NORAD_CAT_ID": 66572, "ELEMENT_SET_NO": 999, "REV_AT_EPOCH": 602, "BSTAR": 0.00051741, "MEAN_MOTION_DOT": 0.0003732, "MEAN_MOTION_DDOT": 0}, "tle": {"line1": "1 66572U 25268R   25355.16668980  .00037320  00000+0  51741-3 0  9998", "line2": "2 66572  43.0008  71.7894 0001256 249.4300 197.2221 15.56395037  6021"}}, "geometry": {"type": "Point", "coordinates": [39.496418806410546, -25.580421942131824]}}, {"type": "Feature", "properties": {"norad_id": 66573, "name": "STARLINK-35650", "group": "last-30-days", "lat": -35.69007766596266, "lon": 20.024473817827186, "alt_km": 415.53603828105497, "timestamp": "2025-12-21T09:37:21.370048+00:00", "meta": {"OBJECT_NAME": "STARLINK-35650", "OBJECT_ID": "2025-268S", "EPOCH": "2025-12-19T14:36:55.904832", "MEAN_MOTION": 15.50859773, "ECCENTRICITY": 0.0003722, "INCLINATION": 43.0011, "RA_OF_ASC_NODE": 80.9506, "ARG_OF_PERICENTER": 102.75, "MEAN_ANOMALY": 257.3776, "EPHEMERIS_TYPE": 0, "CLASSIFICATION_TYPE": "U", "NORAD_CAT_ID": 66573, "ELEMENT_SET_NO": 999, "REV_AT_EPOCH": 569, "BSTAR": 0.0063018, "MEAN_MOTION_DOT": 0.00392409, "MEAN_MOTION_DDOT": 0}, "tle": {"line1": "1 66573U 25268S   25353.60898038  .00392409  00000+0  63018-2 0  9996", "line2": "2 66573  43.0011  80.9506 0003722 102.7500 257.3776 15.50859773  5692"}}, "geometry": {"type": "Point", "coordinates": [20.024473817827186, -35.69007766596266]}}]}